start=new Date('2022-03-07T00:00:00.000Z').valueOf();
sats=[{"REF_FRAME":"TEME","REV_AT_EPOCH":"4640","DECAY_DATE":null,"CLASSIFICATION_TYPE":"U","INCLINATION":"53.0553","LAUNCH_DATE":"2021-05-04","EPOCH":"2022-03-06T11:19:40.610784","PERIAPSIS":"546.018","MEAN_ANOMALY":"295.6443","COUNTRY_CODE":"US","GP_ID":"198066734","MEAN_MOTION_DOT":"0.00001129","OBJECT_NAME":"STARLINK-2626","CENTER_NAME":"EARTH","SITE":"AFETR","TIME_SYSTEM":"UTC","ECCENTRICITY":"0.00016730","FILE":"3347638","TLE_LINE2":"2 48363  53.0553  89.7418 0001673  64.4718 295.6443 15.06412110 46409","RCS_SIZE":"LARGE","MEAN_MOTION_DDOT":"0.0000000000000","NORAD_CAT_ID":"48363","ELEMENT_SET_NO":"999","MEAN_MOTION":"15.06412110","ARG_OF_PERICENTER":"64.4718","RA_OF_ASC_NODE":"89.7418","OBJECT_ID":"2021-038L","OBJECT_TYPE":"PAYLOAD","BSTAR":"0.00009464900000","TLE_LINE1":"1 48363U 21038L   22065.47199781  .00001129  00000-0  94649-4 0  9998","PERIOD":"95.591","MEAN_ELEMENT_THEORY":"SGP4","EPHEMERIS_TYPE":"0","APOAPSIS":"548.335","SEMIMAJOR_AXIS":"6925.311"},{"MEAN_ANOMALY":"296.8072","PERIAPSIS":"546.136","COUNTRY_CODE":"US","GP_ID":"198066984","DECAY_DATE":null,"REV_AT_EPOCH":"4640","REF_FRAME":"TEME","EPOCH":"2022-03-06T11:13:00.442272","CLASSIFICATION_TYPE":"U","INCLINATION":"53.0556","LAUNCH_DATE":"2021-05-04","RA_OF_ASC_NODE":"89.7696","TLE_LINE1":"1 48364U 21038M   22065.46736623 -.00000206  00000-0  50444-5 0  9992","BSTAR":"0.00000504440000","OBJECT_ID":"2021-038M","OBJECT_TYPE":"PAYLOAD","MEAN_MOTION":"15.06409262","ELEMENT_SET_NO":"999","ARG_OF_PERICENTER":"63.3072","SEMIMAJOR_AXIS":"6925.320","EPHEMERIS_TYPE":"0","MEAN_ELEMENT_THEORY":"SGP4","PERIOD":"95.592","APOAPSIS":"548.234","TIME_SYSTEM":"UTC","SITE":"AFETR","OBJECT_NAME":"STARLINK-2611","CENTER_NAME":"EARTH","MEAN_MOTION_DOT":"-0.00000206","MEAN_MOTION_DDOT":"0.0000000000000","NORAD_CAT_ID":"48364","FILE":"3347638","ECCENTRICITY":"0.00015150","RCS_SIZE":"LARGE","TLE_LINE2":"2 48364  53.0556  89.7696 0001515  63.3072 296.8072 15.06409262 46402"},{"MEAN_ELEMENT_THEORY":"SGP4","PERIOD":"95.592","EPHEMERIS_TYPE":"0","APOAPSIS":"548.293","SEMIMAJOR_AXIS":"6925.336","ELEMENT_SET_NO":"999","MEAN_MOTION":"15.06404153","ARG_OF_PERICENTER":"60.1954","RA_OF_ASC_NODE":"89.8746","OBJECT_TYPE":"PAYLOAD","OBJECT_ID":"2021-038N","BSTAR":"0.00022889000000","TLE_LINE1":"1 48365U 21038N   22065.44620242  .00003130  00000-0  22889-3 0  9998","FILE":"3347638","ECCENTRICITY":"0.00015770","TLE_LINE2":"2 48365  53.0535  89.8746 0001577  60.1954 299.9192 15.06404153 46400","RCS_SIZE":"LARGE","MEAN_MOTION_DDOT":"0.0000000000000","NORAD_CAT_ID":"48365","MEAN_MOTION_DOT":"0.00003130","CENTER_NAME":"EARTH","OBJECT_NAME":"STARLINK-2608","SITE":"AFETR","TIME_SYSTEM":"UTC","GP_ID":"198067736","PERIAPSIS":"546.109","MEAN_ANOMALY":"299.9192","COUNTRY_CODE":"US","CLASSIFICATION_TYPE":"U","INCLINATION":"53.0535","LAUNCH_DATE":"2021-05-04","EPOCH":"2022-03-06T10:42:31.889088","REF_FRAME":"TEME","REV_AT_EPOCH":"4640","DECAY_DATE":null},{"MEAN_MOTION_DOT":"0.00003716","TIME_SYSTEM":"UTC","SITE":"AFETR","OBJECT_NAME":"STARLINK-2631","CENTER_NAME":"EARTH","FILE":"3347638","ECCENTRICITY":"0.00016870","RCS_SIZE":"LARGE","TLE_LINE2":"2 48366  53.0545  84.9125 0001687  58.8329 301.2825 15.06412557 46464","MEAN_MOTION_DDOT":"0.0000000000000","NORAD_CAT_ID":"48366","MEAN_MOTION":"15.06412557","ELEMENT_SET_NO":"999","ARG_OF_PERICENTER":"58.8329","RA_OF_ASC_NODE":"84.9125","TLE_LINE1":"1 48366U 21038P   22065.43375249  .00003716  00000-0  26815-3 0  9995","BSTAR":"0.00026815000000","OBJECT_TYPE":"PAYLOAD","OBJECT_ID":"2021-038P","EPHEMERIS_TYPE":"0","MEAN_ELEMENT_THEORY":"SGP4","PERIOD":"95.591","APOAPSIS":"548.343","SEMIMAJOR_AXIS":"6925.310","REV_AT_EPOCH":"4646","REF_FRAME":"TEME","DECAY_DATE":null,"CLASSIFICATION_TYPE":"U","INCLINATION":"53.0545","LAUNCH_DATE":"2021-05-04","EPOCH":"2022-03-06T10:24:36.215136","MEAN_ANOMALY":"301.2825","PERIAPSIS":"546.007","COUNTRY_CODE":"US","GP_ID":"198067484"},{"MEAN_ANOMALY":"309.2332","PERIAPSIS":"545.925","COUNTRY_CODE":"US","GP_ID":"198066234","DECAY_DATE":null,"REV_AT_EPOCH":"4647","REF_FRAME":"TEME","EPOCH":"2022-03-06T11:54:50.310432","CLASSIFICATION_TYPE":"U","LAUNCH_DATE":"2021-05-04","INCLINATION":"53.0541","RA_OF_ASC_NODE":"84.6451","TLE_LINE1":"1 48367U 21038Q   22065.49641563  .00004176  00000-0  29900-3 0  9996","BSTAR":"0.00029900000000","OBJECT_TYPE":"PAYLOAD","OBJECT_ID":"2021-038Q","MEAN_MOTION":"15.06413171","ELEMENT_SET_NO":"999","ARG_OF_PERICENTER":"50.8817","SEMIMAJOR_AXIS":"6925.308","EPHEMERIS_TYPE":"0","PERIOD":"95.591","MEAN_ELEMENT_THEORY":"SGP4","APOAPSIS":"548.421","SITE":"AFETR","TIME_SYSTEM":"UTC","OBJECT_NAME":"STARLINK-2643","CENTER_NAME":"EARTH","MEAN_MOTION_DOT":"0.00004176","MEAN_MOTION_DDOT":"0.0000000000000","NORAD_CAT_ID":"48367","ECCENTRICITY":"0.00018020","FILE":"3347638","RCS_SIZE":"LARGE","TLE_LINE2":"2 48367  53.0541  84.6451 0001802  50.8817 309.2332 15.06413171 46478"},{"ECCENTRICITY":"0.00018470","FILE":"3347710","TLE_LINE2":"2 48368  53.0536  83.3563 0001847  54.0601 306.0559 15.06409646 47119","RCS_SIZE":"LARGE","MEAN_MOTION_DDOT":"0.0000000000000","NORAD_CAT_ID":"48368","MEAN_MOTION_DOT":"0.00001876","OBJECT_NAME":"STARLINK-2623","CENTER_NAME":"EARTH","TIME_SYSTEM":"UTC","SITE":"AFETR","MEAN_ELEMENT_THEORY":"SGP4","PERIOD":"95.592","EPHEMERIS_TYPE":"0","APOAPSIS":"548.463","SEMIMAJOR_AXIS":"6925.319","ELEMENT_SET_NO":"999","MEAN_MOTION":"15.06409646","ARG_OF_PERICENTER":"54.0601","RA_OF_ASC_NODE":"83.3563","OBJECT_TYPE":"PAYLOAD","OBJECT_ID":"2021-038R","TLE_LINE1":"1 48368U 21038R   22065.77928823  .00001876  00000-0  14481-3 0  9997","BSTAR":"0.00014481000000","CLASSIFICATION_TYPE":"U","LAUNCH_DATE":"2021-05-04","INCLINATION":"53.0536","EPOCH":"2022-03-06T18:42:10.503072","REF_FRAME":"TEME","REV_AT_EPOCH":"4711","DECAY_DATE":null,"GP_ID":"198072272","PERIAPSIS":"545.905","MEAN_ANOMALY":"306.0559","COUNTRY_CODE":"US"},{"TLE_LINE1":"1 48369U 21038S   22065.75812814  .00000612  00000-0  59982-4 0  9991","BSTAR":"0.00005998200000","OBJECT_ID":"2021-038S","OBJECT_TYPE":"PAYLOAD","RA_OF_ASC_NODE":"83.4524","ARG_OF_PERICENTER":"51.3719","MEAN_MOTION":"15.06398937","ELEMENT_SET_NO":"999","SEMIMAJOR_AXIS":"6925.352","APOAPSIS":"548.472","EPHEMERIS_TYPE":"0","PERIOD":"95.592","MEAN_ELEMENT_THEORY":"SGP4","TIME_SYSTEM":"UTC","SITE":"AFETR","CENTER_NAME":"EARTH","OBJECT_NAME":"STARLINK-2641","MEAN_MOTION_DOT":"0.00000612","NORAD_CAT_ID":"48369","MEAN_MOTION_DDOT":"0.0000000000000","RCS_SIZE":"LARGE","TLE_LINE2":"2 48369  53.0559  83.4524 0001813  51.3719 308.7432 15.06398937 47104","FILE":"3347880","ECCENTRICITY":"0.00018130","COUNTRY_CODE":"US","MEAN_ANOMALY":"308.7432","PERIAPSIS":"545.961","GP_ID":"198076327","DECAY_DATE":null,"REV_AT_EPOCH":"4710","REF_FRAME":"TEME","EPOCH":"2022-03-06T18:11:42.271296","LAUNCH_DATE":"2021-05-04","INCLINATION":"53.0559","CLASSIFICATION_TYPE":"U"},{"LAUNCH_DATE":"2021-05-04","INCLINATION":"53.0554","CLASSIFICATION_TYPE":"U","EPOCH":"2022-03-06T18:06:23.238432","REV_AT_EPOCH":"4710","REF_FRAME":"TEME","DECAY_DATE":null,"GP_ID":"198076345","COUNTRY_CODE":"US","MEAN_ANOMALY":"306.4841","PERIAPSIS":"546.040","RCS_SIZE":"LARGE","TLE_LINE2":"2 48370  53.0554  83.4754 0001697  53.6304 306.4841 15.06399524 47103","FILE":"3347881","ECCENTRICITY":"0.00016970","NORAD_CAT_ID":"48370","MEAN_MOTION_DDOT":"0.0000000000000","MEAN_MOTION_DOT":"0.00000431","SITE":"AFETR","TIME_SYSTEM":"UTC","OBJECT_NAME":"STARLINK-2621","CENTER_NAME":"EARTH","APOAPSIS":"548.390","EPHEMERIS_TYPE":"0","PERIOD":"95.592","MEAN_ELEMENT_THEORY":"SGP4","SEMIMAJOR_AXIS":"6925.350","ARG_OF_PERICENTER":"53.6304","MEAN_MOTION":"15.06399524","ELEMENT_SET_NO":"999","BSTAR":"0.00004786800000","TLE_LINE1":"1 48370U 21038T   22065.75443563  .00000431  00000-0  47868-4 0  9993","OBJECT_TYPE":"PAYLOAD","OBJECT_ID":"2021-038T","RA_OF_ASC_NODE":"83.4754"},{"DECAY_DATE":null,"REV_AT_EPOCH":"4710","REF_FRAME":"TEME","EPOCH":"2022-03-06T18:01:04.445760","INCLINATION":"53.0542","LAUNCH_DATE":"2021-05-04","CLASSIFICATION_TYPE":"U","COUNTRY_CODE":"US","MEAN_ANOMALY":"305.3725","PERIAPSIS":"546.015","GP_ID":"198076734","TIME_SYSTEM":"UTC","SITE":"AFETR","CENTER_NAME":"EARTH","OBJECT_NAME":"STARLINK-2589","MEAN_MOTION_DOT":"0.00002114","NORAD_CAT_ID":"48371","MEAN_MOTION_DDOT":"0.0000000000000","RCS_SIZE":"LARGE","TLE_LINE2":"2 48371  53.0542  83.5082 0001705  54.7423 305.3725 15.06405672 47101","ECCENTRICITY":"0.00017050","FILE":"3347881","BSTAR":"0.00016078000000","TLE_LINE1":"1 48371U 21038U   22065.75074590  .00002114  00000-0  16078-3 0  9992","OBJECT_ID":"2021-038U","OBJECT_TYPE":"PAYLOAD","RA_OF_ASC_NODE":"83.5082","ARG_OF_PERICENTER":"54.7423","MEAN_MOTION":"15.06405672","ELEMENT_SET_NO":"999","SEMIMAJOR_AXIS":"6925.331","APOAPSIS":"548.377","EPHEMERIS_TYPE":"0","MEAN_ELEMENT_THEORY":"SGP4","PERIOD":"95.592"},{"REF_FRAME":"TEME","REV_AT_EPOCH":"4710","DECAY_DATE":null,"LAUNCH_DATE":"2021-05-04","INCLINATION":"53.0561","CLASSIFICATION_TYPE":"U","EPOCH":"2022-03-06T17:55:45.523488","COUNTRY_CODE":"US","PERIAPSIS":"545.819","MEAN_ANOMALY":"311.6214","GP_ID":"198076444","MEAN_MOTION_DOT":"0.00000709","CENTER_NAME":"EARTH","OBJECT_NAME":"STARLINK-2572","TIME_SYSTEM":"UTC","SITE":"AFETR","TLE_LINE2":"2 48372  53.0561  83.5228 0001954  48.4943 311.6214 15.06413543 47107","RCS_SIZE":"LARGE","FILE":"3347887","ECCENTRICITY":"0.00019540","NORAD_CAT_ID":"48372","MEAN_MOTION_DDOT":"0.0000000000000","ARG_OF_PERICENTER":"48.4943","ELEMENT_SET_NO":"999","MEAN_MOTION":"15.06413543","OBJECT_TYPE":"PAYLOAD","OBJECT_ID":"2021-038V","BSTAR":"0.00006648200000","TLE_LINE1":"1 48372U 21038V   22065.74705467  .00000709  00000-0  66482-4 0  9999","RA_OF_ASC_NODE":"83.5228","APOAPSIS":"548.525","MEAN_ELEMENT_THEORY":"SGP4","PERIOD":"95.591","EPHEMERIS_TYPE":"0","SEMIMAJOR_AXIS":"6925.307"}];
